NORAD_CAT_ID,OBJECT_NAME,OBJECT_TYPE,EPOCH,MEAN_MOTION,ECCENTRICITY,INCLINATION,RA_OF_ASC_NODE,ARG_OF_PERICENTER,MEAN_ANOMALY,BSTAR,MEAN_MOTION_DOT,MEAN_MOTION_DDOT,TLE_LINE0,TLE_LINE1,TLE_LINE2,SEMIMAJOR_AXIS,PERIOD,APOGEE,PERIGEE,DECAYED
53565.0,STARLINK-4575,PAYLOAD,2023-09-29 12:09:22,15.08847236,0.0001181,53.2146,99.4403,80.3004,279.8121,0.00012629,1.723e-05,0.0,0 STARLINK-4575,1 53565U 22101AQ  23272.50651552  .00001723  00000-0  12629-3 0  9991,2 53565  53.2146  99.4403 0001181  80.3004 279.8121 15.08847236 62419,6917.858,95.437,540.54,538.906,0.0
53565.0,STARLINK-4575,PAYLOAD,2023-09-29 18:30:55,15.08848323,0.0001271,53.2152,98.2504,72.5485,287.5646,0.00010711,1.418e-05,0.0,0 STARLINK-4575,1 53565U 22101AQ  23272.77147493  .00001418  00000-0  10711-3 0  9995,2 53565  53.2152  98.2504 0001271  72.5485 287.5646 15.08848323 61797,6917.855,95.437,540.599,538.841,0.0
53565.0,STARLINK-4575,PAYLOAD,2023-09-29 20:06:18,15.08849694,0.0001273,53.2151,97.9526,77.0757,283.0377,0.00012761,1.744e-05,0.0,0 STARLINK-4575,1 53565U 22101AQ  23272.83771380  .00001744  00000-0  12761-3 0  9999,2 53565  53.2151  97.9526 0001273  77.0757 283.0377 15.08849694 62469,6917.851,95.437,540.596,538.835,0.0
53565.0,STARLINK-4575,PAYLOAD,2023-09-30 18:21:42,15.08842792,0.0001205,53.2156,93.7887,87.4588,272.6542,-1.0351e-05,-4.53e-06,0.0,0 STARLINK-4575,1 53565U 22101AQ  23273.76507568 -.00000453  00000-0 -10351-4 0  9999,2 53565  53.2156  93.7887 0001205  87.4588 272.6542 15.08842792 61942,6917.872,95.437,540.57,538.903,0.0
53565.0,STARLINK-4575,PAYLOAD,2023-10-01 05:29:24,15.08840558,0.000128,53.2155,91.7072,87.179,272.9348,0.00023593,3.469e-05,0.0,0 STARLINK-4575,1 53565U 22101AQ  23274.22875783  .00003469  00000-0  23593-3 0  9997,2 53565  53.2155  91.7072 0001280  87.1790 272.9348 15.08840558 62676,6917.879,95.438,540.629,538.858,0.0
53565.0,STARLINK-4575,PAYLOAD,2023-10-01 18:12:29,15.08844955,0.0001286,53.2156,89.3281,83.3017,276.8121,0.00010439,1.374e-05,0.0,0 STARLINK-4575,1 53565U 22101AQ  23274.75867408  .00001374  00000-0  10439-3 0  9998,2 53565  53.2156  89.3281 0001286  83.3017 276.8121 15.08844955 62754,6917.865,95.437,540.62,538.841,0.0
53565.0,STARLINK-4575,PAYLOAD,2023-10-02 05:20:11,15.08844834,0.0001297,53.2155,87.2463,83.2667,276.8473,8.9842e-05,1.142e-05,0.0,0 STARLINK-4575,1 53565U 22101AQ  23275.22235367  .00001142  00000-0  89842-4 0  9992,2 53565  53.2155  87.2463 0001297  83.2667 276.8473 15.08844834 62165,6917.866,95.437,540.628,538.833,0.0
53565.0,STARLINK-4575,PAYLOAD,2023-10-02 18:03:16,15.08836696,0.000144,53.2178,84.867,96.5235,263.5921,1.6664e-05,-2.3e-07,0.0,0 STARLINK-4575,1 53565U 22101AQ  23275.75228008 -.00000023  00000-0  16664-4 0  9994,2 53565  53.2178  84.8670 0001440  96.5235 263.5921 15.08836696 62248,6917.89,95.438,540.752,538.759,0.0
53565.0,STARLINK-4575,PAYLOAD,2023-10-03 14:43:17,15.08840147,0.0001511,53.2187,81.0019,90.1052,270.0113,3.838e-05,3.23e-06,0.0,0 STARLINK-4575,1 53565U 22101AQ  23276.61339885  .00000323  00000-0  38380-4 0  9997,2 53565  53.2187  81.0019 0001511  90.1052 270.0113 15.08840147 63030,6917.88,95.438,540.79,538.7,0.0
53565.0,STARLINK-4575,PAYLOAD,2023-10-03 17:54:03,15.08845756,0.0001332,53.2171,80.4059,88.856,271.2584,3.7798e-05,3.14e-06,0.0,0 STARLINK-4575,1 53565U 22101AQ  23276.74587526  .00000314  00000-0  37798-4 0  9990,2 53565  53.2171  80.4059 0001332  88.8560 271.2584 15.08845756 62393,6917.863,95.437,540.649,538.806,0.0
53565.0,STARLINK-4575,PAYLOAD,2023-10-04 11:23:18,15.08837119,0.0001362,53.2171,77.1348,92.5783,267.5365,0.00014176,1.969e-05,0.0,0 STARLINK-4575,1 53565U 22101AQ  23277.47451943  .00001969  00000-0  14176-3 0  9995,2 53565  53.2171  77.1348 0001362  92.5783 267.5365 15.08837119 62501,6917.889,95.438,540.696,538.812,0.0
53565.0,STARLINK-4575,PAYLOAD,2023-10-04 17:44:50,15.08846284,0.0001286,53.2169,75.9466,80.0327,280.081,0.000149,2.085e-05,0.0,0 STARLINK-4575,1 53565U 22101AQ  23277.73947463  .00002085  00000-0  14900-3 0  9996,2 53565  53.2169  75.9466 0001286  80.0327 280.0810 15.08846284 63202,6917.861,95.437,540.616,538.837,0.0
53565.0,STARLINK-4575,PAYLOAD,2023-10-05 03:17:09,15.08838683,0.0001331,53.2157,74.1633,79.7039,280.4104,5.2352e-05,5.45e-06,0.0,0 STARLINK-4575,1 53565U 22101AQ  23278.13692005  .00000545  00000-0  52352-4 0  9993,2 53565  53.2157  74.1633 0001331  79.7039 280.4104 15.08838683 62609,6917.884,95.438,540.67,538.829,0.0
53565.0,STARLINK-4575,PAYLOAD,2023-10-05 14:24:52,15.08832884,0.0001322,53.2166,72.0816,82.5827,277.5315,-8.5171e-05,-1.643e-05,0.0,0 STARLINK-4575,1 53565U 22101AQ  23278.60060396 -.00001643  00000-0 -85171-4 0  9994,2 53565  53.2166  72.0816 0001322  82.5827 277.5315 15.08832884 63335,6917.902,95.438,540.682,538.853,0.0
53565.0,STARLINK-4575,PAYLOAD,2023-10-05 16:00:16,15.08787279,0.0001564,53.2168,71.7858,84.3878,275.7292,0.00071772,0.00011137,0.0,0 STARLINK-4575,1 53565U 22101AQ  23278.66685758  .00011137  00000-0  71772-3 0  9993,2 53565  53.2168  71.7858 0001564  84.3878 275.7292 15.08787279 62681,6918.042,95.441,540.989,538.825,0.0
53565.0,STARLINK-4575,PAYLOAD,2023-10-06 12:40:16,15.08848199,0.0001451,53.2171,67.9196,91.9971,268.1187,-0.00011551,-2.126e-05,0.0,0 STARLINK-4575,1 53565U 22101AQ  23279.52796552 -.00002126  00000-0 -11551-3 0  9993,2 53565  53.2171  67.9196 0001451  91.9971 268.1187 15.08848199 63476,6917.855,95.437,540.724,538.717,0.0
53565.0,STARLINK-4575,PAYLOAD,2023-10-06 17:26:25,15.08841838,0.000132,53.2176,67.0262,86.5585,273.5559,8.1985e-05,1.017e-05,0.0,0 STARLINK-4575,1 53565U 22101AQ  23279.72668470  .00001017  00000-0  81985-4 0  9997,2 53565  53.2176  67.0262 0001320  86.5585 273.5559 15.08841838 62848,6917.875,95.437,540.653,538.827,0.0
53565.0,STARLINK-4575,PAYLOAD,2023-10-07 14:06:26,15.08840381,0.0001361,53.2176,63.1607,82.8726,277.2421,0.00017402,2.483e-05,0.0,0 STARLINK-4575,1 53565U 22101AQ  23280.58780582  .00002483  00000-0  17402-3 0  9992,2 53565  53.2176  63.1607 0001361  82.8726 277.2421 15.08840381 63638,6917.879,95.438,540.686,538.803,0.0
53565.0,STARLINK-4575,PAYLOAD,2023-10-07 17:17:12,15.08846058,0.0001305,53.2169,62.5653,87.8908,272.2234,0.00025272,3.737e-05,0.0,0 STARLINK-4575,1 53565U 22101AQ  23280.72028360  .00003737  00000-0  25272-3 0  9994,2 53565  53.2169  62.5653 0001305  87.8908 272.2234 15.08846058 63655,6917.862,95.437,540.63,538.824,0.0
53565.0,STARLINK-4575,PAYLOAD,2023-10-08 02:49:31,15.08842997,0.0001286,53.217,60.7808,91.3941,268.7198,0.0001798,2.575e-05,0.0,0 STARLINK-4575,1 53565U 22101AQ  23281.11772494  .00002575  00000-0  17980-3 0  9998,2 53565  53.2170  60.7808 0001286  91.3941 268.7198 15.08842997 63055,6917.871,95.437,540.626,538.847,0.0
53565.0,STARLINK-4575,PAYLOAD,2023-10-08 13:57:13,15.08842114,0.0001314,53.2175,58.6993,86.4067,273.7076,6.3325e-05,7.2e-06,0.0,0 STARLINK-4575,1 53565U 22101AQ  23281.58140588  .00000720  00000-0  63325-4 0  9997,2 53565  53.2175  58.6993 0001314  86.4067 273.7076 15.08842114 63789,6917.874,95.437,540.648,538.83,0.0
53565.0,STARLINK-4575,PAYLOAD,2023-10-08 18:43:22,15.08852188,0.0001511,53.2173,57.804,101.5691,258.5471,0.00020682,3.006e-05,0.0,0 STARLINK-4575,1 53565U 22101AQ  23281.78011960  .00003006  00000-0  20682-3 0  9998,2 53565  53.2173  57.8040 0001511 101.5691 258.5471 15.08852188 63818,6917.843,95.437,540.753,538.663,0.0
53565.0,STARLINK-4575,PAYLOAD,2023-10-09 02:40:18,15.08839733,0.0001632,53.2173,56.3204,93.5335,266.5844,4.915e-05,4.94e-06,0.0,0 STARLINK-4575,1 53565U 22101AQ  23282.11132690  .00000494  00000-0  49150-4 0  9990,2 53565  53.2173  56.3204 0001632  93.5335 266.5844 15.08839733 63200,6917.881,95.438,540.875,538.617,0.0
53565.0,STARLINK-4575,PAYLOAD,2023-10-09 13:48:00,15.08845191,0.0001502,53.2187,54.2386,98.0658,262.0505,1.4144e-05,-6.3e-07,0.0,0 STARLINK-4575,1 53565U 22101AQ  23282.57500530 -.00000063  00000-0  14144-4 0  9990,2 53565  53.2187  54.2386 0001502  98.0658 262.0505 15.08845191 63937,6917.865,95.437,540.769,538.69,0.0
53565.0,STARLINK-4575,PAYLOAD,2023-10-09 15:23:23,15.08846497,0.0001515,53.2186,53.941,100.9524,259.1639,2.7261e-05,1.46e-06,0.0,0 STARLINK-4575,1 53565U 22101AQ  23282.64124410  .00000146  00000-0  27261-4 0  9992,2 53565  53.2186  53.9410 0001515 100.9524 259.1639 15.08846497 63945,6917.861,95.437,540.774,538.677,0.0
53565.0,STARLINK-4575,PAYLOAD,2023-10-10 13:38:47,15.08846003,0.0001381,53.2197,49.7778,95.4389,264.6761,0.00014098,1.957e-05,0.0,0 STARLINK-4575,1 53565U 22101AQ  23283.56860053  .00001957  00000-0  14098-3 0  9998,2 53565  53.2197  49.7778 0001381  95.4389 264.6761 15.08846003 64081,6917.862,95.437,540.682,538.772,0.0
53565.0,STARLINK-4575,PAYLOAD,2023-10-10 18:24:56,15.08856372,0.0001429,53.2183,48.8841,88.9927,271.1229,0.00018776,2.703e-05,0.0,0 STARLINK-4575,1 53565U 22101AQ  23283.76731673  .00002703  00000-0  18776-3 0  9992,2 53565  53.2183  48.8841 0001429  88.9927 271.1229 15.08856372 63457,6917.83,95.437,540.684,538.707,0.0
53565.0,STARLINK-4575,PAYLOAD,2023-10-10 20:00:18,15.08864253,0.0001437,53.2183,48.5882,87.1385,272.9772,0.00029551,4.421e-05,0.0,0 STARLINK-4575,1 53565U 22101AQ  23283.83355211  .00004421  00000-0  29551-3 0  9992,2 53565  53.2183  48.5882 0001437  87.1385 272.9772 15.08864253 64121,6917.806,95.436,540.665,538.677,0.0
53565.0,STARLINK-4575,PAYLOAD,2023-10-11 08:43:25,15.08827141,0.0001369,53.2183,46.2109,93.8232,266.2917,-6.2375e-05,-1.28e-05,0.0,0 STARLINK-4575,1 53565U 22101AQ  23284.36349251 -.00001280  00000-0 -62375-4 0  9992,2 53565  53.2183  46.2109 0001369  93.8232 266.2917 15.08827141 63544,6917.92,95.438,540.732,538.838,0.0
53565.0,STARLINK-4575,PAYLOAD,2023-10-11 13:29:35,15.08832828,0.0001512,53.2187,45.3199,84.3929,275.7236,2.795e-05,1.57e-06,0.0,0 STARLINK-4575,1 53565U 22101AQ  23284.56221103  .00000157  00000-0  27950-4 0  9999,2 53565  53.2187  45.3199 0001512  84.3929 275.7236 15.08832828 64239,6917.902,95.438,540.813,538.721,0.0
